TEVEL2-9                
1 63237U 25052AD  26068.70229538  .00018694  00000+0  67240-3 0  9992
2 63237  97.4057 324.3929 0007990 124.2475 235.9522 15.28633834 54816
STARLINK-35131          
1 66075U 25235T   26068.70812932  .00016262  00000+0  55998-3 0  9990
2 66075  53.1578 245.2262 0001068  46.1174 313.9915 15.30199624 22922
